GPS BIIA-10 (PRN 32)    
<<<<<<< .mine
1 20959U 90103A   13103.15521562 -.00000017  00000-0  00000+0 0  9351
2 20959  54.4049 226.4926 0116469 337.4688  52.7219  2.00558622163905
=======
1 20959U 90103A   13108.78815396 -.00000026  00000-0  00000+0 0  9413
2 20959  54.4024 226.2640 0116495 337.6014 159.7705  2.00558914164018
>>>>>>> .r6620
GPS BIIA-14 (PRN 26)    
<<<<<<< .mine
1 22014U 92039A   13103.44790362 -.00000041  00000-0  00000+0 0  7246
2 22014  56.1267 286.7952 0210412  70.2741 322.5251  2.00565305145633
=======
1 22014U 92039A   13109.43085840 -.00000010  00000-0  00000+0 0  7302
2 22014  56.1227 286.5591 0210246  70.3975 322.4179  2.00564863145750
>>>>>>> .r6620
GPS BIIA-21 (PRN 09)    
<<<<<<< .mine
1 22700U 93042A   13103.13796984 -.00000084  00000-0  00000+0 0  9716
2 22700  56.3918 341.3072 0171041  94.5216  33.8716  2.00666816144974
=======
1 22700U 93042A   13109.22389256 -.00000062  00000-0  00000+0 0  9774
2 22700  56.3911 341.0672 0171227  94.6365 110.3339  2.00666771145098
>>>>>>> .r6620
GPS BIIA-22 (PRN 30)    
<<<<<<< .mine
1 22779U 93054A   13103.15117116 -.00000074  00000-0  00000+0 0  6492
2 22779  55.2043  35.7625 0107296  92.3432 178.6312  2.00566863143725
=======
1 22779U 93054A   13108.91138450 -.00000059  00000-0  00000+0 0  6555
2 22779  55.2072  35.5298 0107457  92.4305  17.7824  2.00566338143841
>>>>>>> .r6620
GPS BIIA-23 (PRN 04)    
<<<<<<< .mine
1 22877U 93068A   13103.23902208  .00000014  00000-0  00000+0 0  3275
2 22877  53.7294 161.3237 0101022  54.6871 348.7872  2.00550868142626
=======
1 22877U 93068A   13109.22230485  .00000030  00000-0  00000+0 0  3336
2 22877  53.7300 161.0781 0101006  54.7916 348.6862  2.00550378142745
>>>>>>> .r6620
GPS BIIA-24 (PRN 06)    
<<<<<<< .mine
1 23027U 94016A   13103.15546089  .00000001  00000-0  00000+0 0  2869
2 23027  53.9027  97.9357 0080933 338.6205 220.5466  2.00562326139927
=======
1 23027U 94016A   13109.10709678  .00000054  00000-0  00000+0 0  2920
2 23027  53.9062  97.6898 0081005 338.8159 197.7398  2.00562101140049
>>>>>>> .r6620
GPS BIIA-25 (PRN 03)    
<<<<<<< .mine
1 23833U 96019A   13102.90033228 -.00000005  00000-0  10000-3 0  4847
2 23833  53.5187  93.4143 0158721  73.1320 288.5926  2.00561839124904
=======
1 23833U 96019A   13108.88332690  .00000045  00000-0  10000-3 0  4905
2 23833  53.5231  93.1637 0159004  73.1675 288.5743  2.00561795125029
>>>>>>> .r6620
GPS BIIA-26 (PRN 10)    
<<<<<<< .mine
1 23953U 96041A   13103.30762567 -.00000015  00000-0  00000+0 0  9745
2 23953  54.0766 222.5211 0122011  44.9704 351.4506  2.00568766122696
=======
1 23953U 96041A   13109.34076924 -.00000028  00000-0  00000+0 0  9801
2 23953  54.0741 222.2741 0121995  44.9646  27.8366  2.00568355122815
>>>>>>> .r6620
GPS BIIR-2  (PRN 13)    
<<<<<<< .mine
1 24876U 97035A   13103.20637047 -.00000043  00000-0  00000+0 0  4428
2 24876  56.2720 287.2184 0049696 120.8432 199.1152  2.00553091115221
=======
1 24876U 97035A   13109.25990788 -.00000010  00000-0  00000+0 0  4483
2 24876  56.2682 286.9809 0049707 121.1499 249.5229  2.00553123115353
>>>>>>> .r6620
GPS BIIA-28 (PRN 08)    
<<<<<<< .mine
1 25030U 97067A   13103.12565812 -.00000085  00000-0  00000+0 0  3871
2 25030  57.1949 347.8282 0128688 196.1917 329.9132  2.00574756113121
=======
1 25030U 97067A   13109.07372188 -.00000068  00000-0  00000+0 0  3964
2 25030  57.1947 347.5989 0129312 195.4381 305.2383  2.00557529113238
>>>>>>> .r6620
GPS BIIR-3  (PRN 11)    
<<<<<<< .mine
1 25933U 99055A   13103.01717141  .00000015  00000-0  10000-3 0  8775
2 25933  50.9252 144.7474 0136774  66.2013 295.3030  2.00561240 99048
=======
1 25933U 99055A   13109.00008546  .00000042  00000-0  10000-3 0  8839
2 25933  50.9263 144.4844 0136879  66.2305 295.2672  2.00561190 99166
>>>>>>> .r6620
GPS BIIR-4  (PRN 20)    
<<<<<<< .mine
1 26360U 00025A   13103.17781020 -.00000015  00000-0  00000+0 0  9680
2 26360  53.1884 218.5363 0052558  73.5251 314.6585  2.00553017 94732
=======
1 26360U 00025A   13109.19523485 -.00000029  00000-0  00000+0 0  9749
2 26360  53.1861 218.2850 0052443  73.4970 339.3827  2.00553323 94851
>>>>>>> .r6620
GPS BIIR-5  (PRN 28)    
<<<<<<< .mine
1 26407U 00040A   13103.18708674 -.00000062  00000-0  00000+0 0  9192
2 26407  56.3098  44.7121 0188392 258.5312 248.9562  2.00567677 93411
=======
1 26407U 00040A   13109.16993312 -.00000042  00000-0  00000+0 0  9256
2 26407  56.3132  44.4772 0188282 258.5510 248.9257  2.00567369 93539
>>>>>>> .r6620
GPS BIIR-6  (PRN 14)    
<<<<<<< .mine
1 26605U 00071A   13103.38803302 -.00000041  00000-0  00000+0 0  9346
2 26605  55.8533 285.5533 0069796 244.2644 339.0200  2.00556790 91016
=======
1 26605U 00071A   13109.42058168 -.00000011  00000-0  00000+0 0  9403
2 26605  55.8493 285.3143 0070030 244.2375  14.7040  2.00556233 91134
>>>>>>> .r6620
GPS BIIR-7  (PRN 18)    
<<<<<<< .mine
1 26690U 01004A   13103.50288727 -.00000016  00000-0  00000+0 0  8148
2 26690  53.1473 221.5876 0143334 239.1350 156.1894  2.00571970 89439
=======
1 26690U 01004A   13109.48562220 -.00000029  00000-0  00000+0 0  8205
2 26690  53.1447 221.3374 0143654 239.2260 156.1654  2.00571694 89557
>>>>>>> .r6620
GPS BIIR-8  (PRN 16)    
<<<<<<< .mine
1 27663U 03005A   13103.20483032 -.00000062  00000-0  00000+0 0  2454
2 27663  56.3997  44.3502 0071173   2.0982 277.9501  2.00569953 74778
=======
1 27663U 03005A   13108.91160727 -.00000043  00000-0  00000+0 0  2516
2 27663  56.4028  44.1265 0071171   2.3505  78.4001  2.00569303 74880
>>>>>>> .r6620
GPS BIIR-9  (PRN 21)    
<<<<<<< .mine
1 27704U 03010A   13102.56571184  .00000018  00000-0  00000+0 0  1280
2 27704  53.3736 161.5767 0204016 237.0881 262.2794  2.00559883 73556
=======
1 27704U 03010A   13108.54870736  .00000021  00000-0  00000+0 0  1340
2 27704  53.3743 161.3289 0204324 237.2168 262.1349  2.00560045 73673
>>>>>>> .r6620
GPS BIIR-10 (PRN 22)    
<<<<<<< .mine
1 28129U 03058A   13102.69165069 -.00000019  00000-0  00000+0 0  7007
2 28129  53.0184 221.7760 0066713 243.6429 257.3855  2.00565674 68265
=======
1 28129U 03058A   13109.51438574 -.00000029  00000-0  00000+0 0  7066
2 28129  53.0155 221.4899 0066956 243.6744 143.8213  2.00565589 68400
>>>>>>> .r6620
GPS BIIR-11 (PRN 19)    
<<<<<<< .mine
1 28190U 04009A   13103.15061521  .00000012  00000-0  00000+0 0  6979
2 28190  55.1418 106.7640 0091069  14.9610 139.9937  2.00561852 66446
=======
1 28190U 04009A   13109.23713201  .00000067  00000-0  00000+0 0  7031
2 28190  55.1449 106.5206 0091278  15.1154 214.5893  2.00561327 66565
>>>>>>> .r6620
GPS BIIR-12 (PRN 23)    
<<<<<<< .mine
1 28361U 04023A   13103.21074034 -.00000043  00000-0  00000+0 0  5148
2 28361  54.7971 282.2427 0084566 194.8182 153.4858  2.00557709 64520
=======
1 28361U 04023A   13109.24277537 -.00000013  00000-0  00000+0 0  5204
2 28361  54.7931 281.9974 0084803 194.9765 188.6416  2.00557733 64652
>>>>>>> .r6620
GPS BIIR-13 (PRN 02)    
<<<<<<< .mine
1 28474U 04045A   13103.28048122  .00000015  00000-0  00000+0 0  4005
2 28474  53.7847 160.3768 0123777 210.6148 192.0673  2.00566717 61897
=======
1 28474U 04045A   13109.32453843  .00000033  00000-0  00000+0 0  4062
2 28474  53.7854 160.1291 0124006 210.8253 236.0844  2.00566158 62012
>>>>>>> .r6620
GPS BIIRM-1 (PRN 17)    
<<<<<<< .mine
1 28874U 05038A   13103.30177432  .00000011  00000-0  00000+0 0  6606
2 28874  55.2997 103.7745 0084813 234.9279 285.2138  2.00570566 55319
=======
1 28874U 05038A   13109.25000811  .00000065  00000-0  00000+0 0  6667
2 28874  55.3027 103.5376 0084967 234.9648 260.2656  2.00569970 55430
>>>>>>> .r6620
GPS BIIRM-2 (PRN 31)    
<<<<<<< .mine
1 29486U 06042A   13103.38645360 -.00000085  00000-0  00000+0 0   549
2 29486  56.1832 342.8933 0081221 316.0089 187.8876  2.00575304 48013
=======
1 29486U 06042A   13109.39364616 -.00000063  00000-0  00000+0 0   601
2 29486  56.1824 342.6558 0080970 316.1626 205.4724  2.00574605 48138
>>>>>>> .r6620
GPS BIIRM-3 (PRN 12)    
<<<<<<< .mine
1 29601U 06052A   13103.32326883 -.00000062  00000-0  00000+0 0   836
2 29601  56.3590  43.2938 0044411   9.2266 130.5377  2.00574266 46925
=======
1 29601U 06052A   13109.30592897 -.00000045  00000-0  00000+0 0   897
2 29601  56.3625  43.0591 0044428   9.6960 130.0550  2.00574405 47047
>>>>>>> .r6620
GPS BIIRM-4 (PRN 15)    
<<<<<<< .mine
1 32260U 07047A   13103.49831454 -.00000042  00000-0  00000+0 0  7924
2 32260  53.9424 279.9097 0053493   7.0671  31.9409  2.00555126 40310
=======
1 32260U 07047A   13109.48758211 -.00000016  00000-0  00000+0 0  7985
2 32260  53.9381 279.6610 0053781   7.0863  36.3282  2.00554519 40439
>>>>>>> .r6620
GPS BIIRM-5 (PRN 29)    
<<<<<<< .mine
1 32384U 07062A   13103.45152787  .00000011  00000-0  00000+0 0  8284
2 32384  55.3356 104.2705 0021654 296.5578 201.4678  2.00564980 39046
=======
1 32384U 07062A   13109.43445817  .00000067  00000-0  00000+0 0  8345
2 32384  55.3388 104.0325 0021568 296.5745 201.4619  2.00565103 39163
>>>>>>> .r6620
GPS BIIRM-6 (PRN 07)    
<<<<<<< .mine
1 32711U 08012A   13102.85713351 -.00000086  00000-0  10000-3 0  5833
2 32711  55.8966 342.6659 0062013 194.5295 165.3371  2.00560836 37249
GPS BIIRM-7 (PRN 27)    
1 34661U 09014A   13102.81173760 -.00000068  00000-0  00000+0 0  5826
2 34661  55.9960  42.0913 0059402  46.3418 349.9123  2.00567207 29754
=======
1 32711U 08012A   13108.84019079 -.00000067  00000-0  10000-3 0  5899
2 32711  55.8958 342.4281 0062195 194.4713 165.3931  2.00560940 37365
GPS BIIRM-7 (PRN 27)    
1 34661U 09014A   13109.47085931 -.00000048  00000-0  00000+0 0  5881
2 34661  55.9996  41.8274 0059814  46.7192 117.8311  2.00566619 29881
>>>>>>> .r6620
GPS BIIRM-8 (PRN 05)    
<<<<<<< .mine
1 35752U 09043A   13103.37576075 -.00000014  00000-0  00000+0 0  3377
2 35752  54.3725 221.3904 0029823  12.3145  29.3387  2.00572040 26821
=======
1 35752U 09043A   13109.35840366 -.00000027  00000-0  00000+0 0  3439
2 35752  54.3700 221.1477 0029858  12.0858  29.5552  2.00571461 26948
>>>>>>> .r6620
GPS BIIF-1  (PRN 25)    
<<<<<<< .mine
1 36585U 10022A   13103.36748650 -.00000066  00000-0  00000+0 0  1487
2 36585  55.7190  41.1287 0023681  29.1428 114.7831  2.00577779 21074
=======
1 36585U 10022A   13109.43166655 -.00000050  00000-0  00000+0 0  1540
2 36585  55.7225  40.8867 0023947  29.9768 172.8895  2.00577884 21198
>>>>>>> .r6620
GPS BIIF-2  (PRN 01)    
<<<<<<< .mine
1 37753U 11036A   13104.15137975  .00000011  00000-0  00000+0 0  6137
2 37753  55.0157 161.5270 0017148   9.0431  64.7627  2.00560419 12776
GPS BIIF-3  (PRN 24)    
1 38833U 12053A   13103.03899712 -.00000087  00000-0  00000+0 0  1596
2 38833  54.9541 341.0670 0008456   5.7711 354.2847  2.00562180  3819
=======
1 37753U 11036A   13109.13556664  .00000031  00000-0  00000+0 0  6198
2 37753  55.0164 161.3291 0017307   8.2217  64.3755  2.00560302 12875
GPS BIIF-3  (PRN 24)    
1 38833U 12053A   13109.02200175 -.00000066  00000-0  00000+0 0  1654
2 38833  54.9532 340.8233 0008588   6.9036 353.1516  2.00562040  3939
>>>>>>> .r6620
